NORAD_CAT_ID,OBJECT_NAME,OBJECT_TYPE,EPOCH,MEAN_MOTION,ECCENTRICITY,INCLINATION,RA_OF_ASC_NODE,ARG_OF_PERICENTER,MEAN_ANOMALY,BSTAR,MEAN_MOTION_DOT,MEAN_MOTION_DDOT,TLE_LINE0,TLE_LINE1,TLE_LINE2,SEMIMAJOR_AXIS,PERIOD,APOGEE,PERIGEE,DECAYED
49444.0,STARLINK-3126,PAYLOAD,2023-12-21 22:57:27,15.088366,0.0001252,53.2148,239.6829,113.8776,246.2348,-0.00010045,-1.886e-05,0.0,0 STARLINK-3126,1 49444U 21104AN  23355.95656805 -.00001886  00000-0 -10045-3 0  9993,2 49444  53.2148 239.6829 0001252 113.8776 246.2348 15.08836600117894,6917.891,95.438,540.622,538.89,0.0
49444.0,STARLINK-3126,PAYLOAD,2023-12-22 21:12:51,15.08845813,0.0001155,53.215,235.5112,80.4024,279.7099,-2.0864e-05,-6.2e-06,0.0,0 STARLINK-3126,1 49444U 21104AN  23356.88392822 -.00000620  00000-0 -20864-4 0  9998,2 49444  53.2150 235.5112 0001155  80.4024 279.7099 15.08845813116961,6917.863,95.437,540.527,538.929,0.0
49444.0,STARLINK-3126,PAYLOAD,2023-12-22 22:48:14,15.0884537,0.0001242,53.2155,235.2133,78.8149,281.2983,0.00025078,3.706e-05,0.0,0 STARLINK-3126,1 49444U 21104AN  23356.95016943  .00003706  00000-0  25078-3 0  9990,2 49444  53.2155 235.2133 0001242  78.8149 281.2983 15.08845370118041,6917.864,95.437,540.588,538.87,0.0
49444.0,STARLINK-3126,PAYLOAD,2023-12-23 19:28:15,15.08839727,0.0001209,53.2149,231.3474,106.0099,254.1026,0.00022327,3.267e-05,0.0,0 STARLINK-3126,1 49444U 21104AN  23357.81129437  .00003267  00000-0  22327-3 0  9995,2 49444  53.2149 231.3474 0001209 106.0099 254.1026 15.08839727118170,6917.881,95.438,540.583,538.91,0.0
49444.0,STARLINK-3126,PAYLOAD,2023-12-23 21:03:38,15.08840757,0.0001267,53.2151,231.0501,105.1175,254.9958,0.0002418,3.563e-05,0.0,0 STARLINK-3126,1 49444U 21104AN  23357.87753457  .00003563  00000-0  24180-3 0  9994,2 49444  53.2151 231.0501 0001267 105.1175 254.9958 15.08840757117110,6917.878,95.438,540.62,538.867,0.0
49444.0,STARLINK-3126,PAYLOAD,2023-12-24 01:49:48,15.08840019,0.0001219,53.215,230.16,100.7387,259.3742,0.00022314,3.265e-05,0.0,0 STARLINK-3126,1 49444U 21104AN  23358.07625543  .00003265  00000-0  22314-3 0  9997,2 49444  53.2150 230.1600 0001219 100.7387 259.3742 15.08840019117146,6917.88,95.438,540.589,538.902,0.0
49444.0,STARLINK-3126,PAYLOAD,2023-12-24 22:29:48,15.08846858,0.0001258,53.2158,226.296,102.3026,257.8107,0.00020942,3.047e-05,0.0,0 STARLINK-3126,1 49444U 21104AN  23358.93737244  .00003047  00000-0  20942-3 0  9997,2 49444  53.2158 226.2960 0001258 102.3026 257.8107 15.08846858117279,6917.859,95.437,540.595,538.854,0.0
49444.0,STARLINK-3126,PAYLOAD,2023-12-25 14:23:40,15.08838538,0.0001195,53.216,223.3288,95.5633,264.5495,0.00013444,1.852e-05,0.0,0 STARLINK-3126,1 49444U 21104AN  23359.59977686  .00001852  00000-0  13444-3 0  9997,2 49444  53.2160 223.3288 0001195  95.5633 264.5495 15.08838538117372,6917.885,95.438,540.577,538.923,0.0
49444.0,STARLINK-3126,PAYLOAD,2023-12-25 19:09:50,15.0883445,0.0001339,53.2158,222.4315,100.5539,259.5604,3.4837e-05,2.66e-06,0.0,0 STARLINK-3126,1 49444U 21104AN  23359.79849983  .00000266  00000-0  34837-4 0  9995,2 49444  53.2158 222.4315 0001339 100.5539 259.5604 15.08834450118479,6917.897,95.438,540.689,538.836,0.0
49444.0,STARLINK-3126,PAYLOAD,2023-12-25 22:20:36,15.08834595,0.0001305,53.2169,221.8362,80.0112,280.1027,8.1856e-05,1.015e-05,0.0,0 STARLINK-3126,1 49444U 21104AN  23359.93098247  .00001015  00000-0  81856-4 0  9996,2 49444  53.2169 221.8362 0001305  80.0112 280.1027 15.08834595117421,6917.897,95.438,540.665,538.859,0.0
49444.0,STARLINK-3126,PAYLOAD,2023-12-26 14:14:27,15.08849626,0.0001927,53.2168,218.8622,80.2425,279.8785,-0.00010892,-2.022e-05,0.0,0 STARLINK-3126,1 49444U 21104AN  23360.59337711 -.00002022  00000-0 -10892-3 0  9994,2 49444  53.2168 218.8622 0001927  80.2425 279.8785 15.08849626117522,6917.851,95.437,541.049,538.383,0.0
49444.0,STARLINK-3126,PAYLOAD,2023-12-26 22:11:27,15.08691191,0.0002016,53.2164,217.3756,85.0499,275.0723,0.0021251,0.00033557,0.0,0 STARLINK-3126,1 49444U 21104AN  23360.92462032  .00033557  00000-0  21251-2 0  9991,2 49444  53.2164 217.3756 0002016  85.0499 275.0723 15.08691191117571,6918.335,95.447,541.595,538.806,0.0
49444.0,STARLINK-3126,PAYLOAD,2023-12-26 23:46:46,15.08845328,0.0001292,53.2161,217.0772,105.2292,254.8843,4.3095e-06,-2.19e-06,0.0,0 STARLINK-3126,1 49444U 21104AN  23360.99081691 -.00000219  00000-0  43095-5 0  9999,2 49444  53.2161 217.0772 0001292 105.2292 254.8843 15.08845328118655,6917.864,95.437,540.623,538.835,0.0
49444.0,STARLINK-3126,PAYLOAD,2023-12-27 22:02:10,15.08846304,0.0001224,53.216,212.9128,80.0033,280.1097,0.00010206,1.337e-05,0.0,0 STARLINK-3126,1 49444U 21104AN  23361.91817518  .00001337  00000-0  10206-3 0  9994,2 49444  53.2160 212.9128 0001224  80.0033 280.1097 15.08846304117726,6917.861,95.437,540.573,538.879,0.0
49444.0,STARLINK-3126,PAYLOAD,2023-12-27 23:37:33,15.08845869,0.0001232,53.216,212.6155,80.1768,279.9363,9.7979e-05,1.272e-05,0.0,0 STARLINK-3126,1 49444U 21104AN  23361.98441537  .00001272  00000-0  97979-4 0  9996,2 49444  53.2160 212.6155 0001232  80.1768 279.9363 15.08845869117736,6917.862,95.437,540.58,538.875,0.0
49444.0,STARLINK-3126,PAYLOAD,2023-12-28 18:42:11,15.08838735,0.0001147,53.2157,209.0484,83.0657,277.0466,2.2922e-05,7.7e-07,0.0,0 STARLINK-3126,1 49444U 21104AN  23362.77930223  .00000077  00000-0  22922-4 0  9997,2 49444  53.2157 209.0484 0001147  83.0657 277.0466 15.08838735118920,6917.884,95.438,540.543,538.956,0.0
49444.0,STARLINK-3126,PAYLOAD,2023-12-28 20:17:34,15.088388,0.0001291,53.2158,208.7511,76.9933,283.1203,2.5971e-05,1.25e-06,0.0,0 STARLINK-3126,1 49444U 21104AN  23362.84554226  .00000125  00000-0  25971-4 0  9991,2 49444  53.2158 208.7511 0001291  76.9933 283.1203 15.08838800117868,6917.884,95.438,540.642,538.856,0.0
49444.0,STARLINK-3126,PAYLOAD,2023-12-29 20:08:21,15.08846084,0.0001384,53.2166,204.2913,99.6567,260.4582,4.3956e-05,4.12e-06,0.0,0 STARLINK-3126,1 49444U 21104AN  23363.83913592  .00000412  00000-0  43956-4 0  9998,2 49444  53.2166 204.2913 0001384  99.6567 260.4582 15.08846084119089,6917.862,95.437,540.684,538.769,0.0
49444.0,STARLINK-3126,PAYLOAD,2023-12-30 19:59:08,15.08839288,0.0001348,53.216,199.8267,90.1454,269.9693,3.8673e-05,3.28e-06,0.0,0 STARLINK-3126,1 49444U 21104AN  23364.83273988  .00000328  00000-0  38673-4 0  9993,2 49444  53.2160 199.8267 0001348  90.1454 269.9693 15.08839288119237,6917.883,95.438,540.68,538.815,0.0
49444.0,STARLINK-3126,PAYLOAD,2023-12-31 19:49:55,15.08841549,0.0001382,53.2161,195.3683,99.8452,260.2697,3.0218e-05,1.93e-06,0.0,0 STARLINK-3126,1 49444U 21104AN  23365.82633794  .00000193  00000-0  30218-4 0  9995,2 49444  53.2161 195.3683 0001382  99.8452 260.2697 15.08841549118312,6917.876,95.437,540.697,538.785,0.0
49444.0,STARLINK-3126,PAYLOAD,2024-01-01 13:19:10,15.08837094,0.0001353,53.2159,192.0974,98.8443,261.2703,3.5654e-05,2.8e-06,0.0,0 STARLINK-3126,1 49444U 21104AN  24001.55498064  .00000280  00000-0  35654-4 0  9998,2 49444  53.2159 192.0974 0001353  98.8443 261.2703 15.08837094118424,6917.889,95.438,540.69,538.818,0.0
49444.0,STARLINK-3126,PAYLOAD,2024-01-01 19:40:42,15.08838463,0.0001353,53.2161,190.9079,98.703,261.4115,4.298e-05,3.96e-06,0.0,0 STARLINK-3126,1 49444U 21104AN  24001.81993984  .00000396  00000-0  42980-4 0  9996,2 49444  53.2161 190.9079 0001353  98.7030 261.4115 15.08838463119534,6917.885,95.438,540.686,538.814,0.0
49444.0,STARLINK-3126,PAYLOAD,2024-01-02 11:34:34,15.08832213,0.0001337,53.2163,187.9349,100.1572,259.9571,0.00012483,1.699e-05,0.0,0 STARLINK-3126,1 49444U 21104AN  24002.48234312  .00001699  00000-0  12483-3 0  9994,2 49444  53.2163 187.9349 0001337 100.1572 259.9571 15.08832213118560,6917.904,95.438,540.694,538.844,0.0
49444.0,STARLINK-3126,PAYLOAD,2024-01-02 19:31:30,15.08840032,0.0001427,53.216,186.4468,96.471,263.6445,-4.1404e-06,-3.54e-06,0.0,0 STARLINK-3126,1 49444U 21104AN  24002.81354193 -.00000354  00000-0 -41404-5 0  9997,2 49444  53.2160 186.4468 0001427  96.4710 263.6445 15.08840032118610,6917.88,95.438,540.732,538.758,0.0
49444.0,STARLINK-3126,PAYLOAD,2024-01-03 19:22:17,15.0883638,0.0001303,53.2157,181.9863,87.2643,272.8498,2.0294e-05,3.5e-07,0.0,0 STARLINK-3126,1 49444U 21104AN  24003.80714571  .00000035  00000-0  20294-4 0  9994,2 49444  53.2157 181.9863 0001303  87.2643 272.8498 15.08836380119837,6917.891,95.438,540.658,538.855,0.0
49444.0,STARLINK-3126,PAYLOAD,2024-01-04 19:13:04,15.08842092,0.0001417,53.216,177.5265,76.4794,283.6356,8.9024e-05,1.129e-05,0.0,0 STARLINK-3126,1 49444U 21104AN  24004.80074131  .00001129  00000-0  89024-4 0  9997,2 49444  53.2160 177.5265 0001417  76.4794 283.6356 15.08842092118919,6917.874,95.437,540.719,538.759,0.0
49444.0,STARLINK-3126,PAYLOAD,2024-01-05 17:28:28,15.08837336,0.0001494,53.2165,173.3628,76.0197,284.0961,3.0835e-05,2.03e-06,0.0,0 STARLINK-3126,1 49444U 21104AN  24005.72810752  .00000203  00000-0  30835-4 0  9994,2 49444  53.2165 173.3628 0001494  76.0197 284.0961 15.08837336120127,6917.889,95.438,540.787,538.72,0.0
49444.0,STARLINK-3126,PAYLOAD,2024-01-05 20:39:14,15.08838063,0.000152,53.2167,172.7663,75.5032,284.6129,3.4766e-05,2.65e-06,0.0,0 STARLINK-3126,1 49444U 21104AN  24005.86058697  .00000265  00000-0  34766-4 0  9996,2 49444  53.2167 172.7663 0001520  75.5032 284.6129 15.08838063119075,6917.886,95.438,540.803,538.7,0.0
49444.0,STARLINK-3126,PAYLOAD,2024-01-06 10:57:42,15.08841721,0.0001557,53.2168,170.0915,75.5636,284.5529,3.0849e-05,2.03e-06,0.0,0 STARLINK-3126,1 49444U 21104AN  24006.45674477  .00000203  00000-0  30849-4 0  9992,2 49444  53.2168 170.0915 0001557  75.5636 284.5529 15.08841721119165,6917.875,95.437,540.817,538.663,0.0
49444.0,STARLINK-3126,PAYLOAD,2024-01-06 17:19:15,15.08843261,0.0001388,53.2163,168.9032,86.9924,273.1227,4.0546e-05,3.57e-06,0.0,0 STARLINK-3126,1 49444U 21104AN  24006.72170218  .00000357  00000-0  40546-4 0  9991,2 49444  53.2163 168.9032 0001388  86.9924 273.1227 15.08843261119209,6917.87,95.437,540.696,538.775,0.0
